{
  "type": "FeatureCollection",
  "features": [
    {
      "type": "Feature",
      "properties": {
        "norad_id": 34648,
        "name": "IRIDIUM 33 DEB",
        "group": "iridium-33-debris",
        "lat": 3.6595204577344247,
        "lon": -83.15419342181323,
        "alt_km": 889.796278613725,
        "timestamp": "2025-12-25T22:42:17.398466+00:00",
        "meta_object_name": "IRIDIUM 33 DEB",
        "meta_object_id": "1997-051JZ",
        "meta_epoch": "2025-12-24T12:40:05.266272",
        "meta_mean_motion": 14.11825085,
        "meta_eccentricity": 0.01786115,
        "meta_inclination": 86.3902,
        "meta_ra_of_asc_node": 277.1873,
        "meta_arg_of_pericenter": 261.8681,
        "meta_mean_anomaly": 96.2208,
        "meta_ephemeris_type": 0,
        "meta_classification_type": "U",
        "meta_norad_cat_id": 34648,
        "meta_element_set_no": 999,
        "meta_rev_at_epoch": 85127,
        "meta_bstar": 0.0070051894,
        "meta_mean_motion_dot": 0.00014884,
        "meta_mean_motion_ddot": 0,
        "tle_line1": "1 34648U 97051JZ  25358.52783873  .00014884  00000+0  70052-2 0  9993",
        "tle_line2": "2 34648  86.3902 277.1873 0178611 261.8681  96.2208 14.11825085851271"
      },
      "geometry": {
        "type": "Point",
        "coordinates": [
          -83.15419342181323,
          3.6595204577344247
        ]
      }
    },
    {
      "type": "Feature",
      "properties": {
        "norad_id": 34651,
        "name": "IRIDIUM 33 DEB",
        "group": "iridium-33-debris",
        "lat": 14.372227459372686,
        "lon": 135.91332405627085,
        "alt_km": 891.8910252926553,
        "timestamp": "2025-12-25T22:42:17.398476+00:00",
        "meta_object_name": "IRIDIUM 33 DEB",
        "meta_object_id": "1997-051KC",
        "meta_epoch": "2025-12-25T15:53:57.959232",
        "meta_mean_motion": 14.26027654,
        "meta_eccentricity": 0.0142018,
        "meta_inclination": 86.2827,
        "meta_ra_of_asc_node": 135.0795,
        "meta_arg_of_pericenter": 163.1805,
        "meta_mean_anomaly": 197.4168,
        "meta_ephemeris_type": 0,
        "meta_classification_type": "U",
        "meta_norad_cat_id": 34651,
        "meta_element_set_no": 999,
        "meta_rev_at_epoch": 86080,
        "meta_bstar": 0.0036817,
        "meta_mean_motion_dot": 9.797e-05,
        "meta_mean_motion_ddot": 0,
        "tle_line1": "1 34651U 97051KC  25359.66247638  .00009797  00000+0  36817-2 0  9995",
        "tle_line2": "2 34651  86.2827 135.0795 0142018 163.1805 197.4168 14.26027654860809"
      },
      "geometry": {
        "type": "Point",
        "coordinates": [
          135.91332405627085,
          14.372227459372686
        ]
      }
    },
    {
      "type": "Feature",
      "properties": {
        "norad_id": 34652,
        "name": "IRIDIUM 33 DEB",
        "group": "iridium-33-debris",
        "lat": -15.059501405026909,
        "lon": -26.868160198277753,
        "alt_km": 692.5422994333849,
        "timestamp": "2025-12-25T22:42:17.398485+00:00",
        "meta_object_name": "IRIDIUM 33 DEB",
        "meta_object_id": "1997-051KD",
        "meta_epoch": "2025-12-25T04:47:40.914240",
        "meta_mean_motion": 14.62168979,
        "meta_eccentricity": 0.0025437,
        "meta_inclination": 86.3321,
        "meta_ra_of_asc_node": 334.4529,
        "meta_arg_of_pericenter": 252.4347,
        "meta_mean_anomaly": 126.6927,
        "meta_ephemeris_type": 0,
        "meta_classification_type": "U",
        "meta_norad_cat_id": 34652,
        "meta_element_set_no": 999,
        "meta_rev_at_epoch": 88666,
        "meta_bstar": 0.0010092,
        "meta_mean_motion_dot": 5.122e-05,
        "meta_mean_motion_ddot": 0,
        "tle_line1": "1 34652U 97051KD  25359.19977910  .00005122  00000+0  10092-2 0  9992",
        "tle_line2": "2 34652  86.3321 334.4529 0025437 252.4347 126.6927 14.62168979886663"
      },
      "geometry": {
        "type": "Point",
        "coordinates": [
          -26.868160198277753,
          -15.059501405026909
        ]
      }
    },
    {
      "type": "Feature",
      "properties": {
        "norad_id": 34690,
        "name": "IRIDIUM 33 DEB",
        "group": "iridium-33-debris",
        "lat": -55.17851343966581,
        "lon": -143.52327779275734,
        "alt_km": 718.3006393653332,
        "timestamp": "2025-12-25T22:42:17.398496+00:00",
        "meta_object_name": "IRIDIUM 33 DEB",
        "meta_object_id": "1997-051KM",
        "meta_epoch": "2025-12-24T20:02:14.768160",
        "meta_mean_motion": 14.55137496,
        "meta_eccentricity": 0.00094344,
        "meta_inclination": 86.3772,
        "meta_ra_of_asc_node": 31.7337,
        "meta_arg_of_pericenter": 348.828,
        "meta_mean_anomaly": 189.5757,
        "meta_ephemeris_type": 0,
        "meta_classification_type": "U",
        "meta_norad_cat_id": 34690,
        "meta_element_set_no": 999,
        "meta_rev_at_epoch": 88270,
        "meta_bstar": 0.00039831575,
        "meta_mean_motion_dot": 1.741e-05,
        "meta_mean_motion_ddot": 0,
        "tle_line1": "1 34690U 97051KM  25358.83489315  .00001741  00000+0  39832-3 0  9998",
        "tle_line2": "2 34690  86.3772  31.7337 0009434 348.8280 189.5757 14.55137496882706"
      },
      "geometry": {
        "type": "Point",
        "coordinates": [
          -143.52327779275734,
          -55.17851343966581
        ]
      }
    },
    {
      "type": "Feature",
      "properties": {
        "norad_id": 34693,
        "name": "IRIDIUM 33 DEB",
        "group": "iridium-33-debris",
        "lat": -35.338791344359045,
        "lon": 119.8759419652838,
        "alt_km": 485.02228296362864,
        "timestamp": "2025-12-25T22:42:17.398506+00:00",
        "meta_object_name": "IRIDIUM 33 DEB",
        "meta_object_id": "1997-051KQ",
        "meta_epoch": "2025-12-25T03:00:18.455904",
        "meta_mean_motion": 15.31024765,
        "meta_eccentricity": 0.00096503,
        "meta_inclination": 86.304,
        "meta_ra_of_asc_node": 297.6587,
        "meta_arg_of_pericenter": 31.5304,
        "meta_mean_anomaly": 342.4375,
        "meta_ephemeris_type": 0,
        "meta_classification_type": "U",
        "meta_norad_cat_id": 34693,
        "meta_element_set_no": 999,
        "meta_rev_at_epoch": 89104,
        "meta_bstar": 0.0050386531,
        "meta_mean_motion_dot": 0.00153987,
        "meta_mean_motion_ddot": 0,
        "tle_line1": "1 34693U 97051KQ  25359.12521361  .00153987  00000+0  50387-2 0  9999",
        "tle_line2": "2 34693  86.3040 297.6587 0009650  31.5304 342.4375 15.31024765891042"
      },
      "geometry": {
        "type": "Point",
        "coordinates": [
          119.8759419652838,
          -35.338791344359045
        ]
      }
    },
    {
      "type": "Feature",
      "properties": {
        "norad_id": 34696,
        "name": "IRIDIUM 33 DEB",
        "group": "iridium-33-debris",
        "lat": 37.25189646204439,
        "lon": -161.5322232250057,
        "alt_km": 623.1064896247981,
        "timestamp": "2025-12-25T22:42:17.398516+00:00",
        "meta_object_name": "IRIDIUM 33 DEB",
        "meta_object_id": "1997-051KT",
        "meta_epoch": "2025-12-25T02:40:19.490880",
        "meta_mean_motion": 14.65659074,
        "meta_eccentricity": 0.00738807,
        "meta_inclination": 86.1858,
        "meta_ra_of_asc_node": 21.7643,
        "meta_arg_of_pericenter": 125.9017,
        "meta_mean_anomaly": 294.9986,
        "meta_ephemeris_type": 0,
        "meta_classification_type": "U",
        "meta_norad_cat_id": 34696,
        "meta_element_set_no": 999,
        "meta_rev_at_epoch": 86854,
        "meta_bstar": 0.0042163681,
        "meta_mean_motion_dot": 0.00023946,
        "meta_mean_motion_ddot": 0,
        "tle_line1": "1 34696U 97051KT  25359.11133670  .00023946  00000+0  42164-2 0  9998",
        "tle_line2": "2 34696  86.1858  21.7643 0073880 125.9017 294.9986 14.65659074868545"
      },
      "geometry": {
        "type": "Point",
        "coordinates": [
          -161.5322232250057,
          37.25189646204439
        ]
      }
    },
    {
      "type": "Feature",
      "properties": {
        "norad_id": 34765,
        "name": "IRIDIUM 33 DEB",
        "group": "iridium-33-debris",
        "lat": -70.32634242369873,
        "lon": 16.77652983737693,
        "alt_km": 770.6263167117295,
        "timestamp": "2025-12-25T22:42:17.398526+00:00",
        "meta_object_name": "IRIDIUM 33 DEB",
        "meta_object_id": "1997-051LJ",
        "meta_epoch": "2025-12-23T02:58:27.844896",
        "meta_mean_motion": 14.40490027,
        "meta_eccentricity": 0.00166531,
        "meta_inclination": 86.3383,
        "meta_ra_of_asc_node": 28.3053,
        "meta_arg_of_pericenter": 176.053,
        "meta_mean_anomaly": 247.6854,
        "meta_ephemeris_type": 0,
        "meta_classification_type": "U",
        "meta_norad_cat_id": 34765,
        "meta_element_set_no": 999,
        "meta_rev_at_epoch": 87763,
        "meta_bstar": 0.00035770807,
        "meta_mean_motion_dot": 1.159e-05,
        "meta_mean_motion_ddot": 0,
        "tle_line1": "1 34765U 97051LJ  25357.12393339  .00001159  00000+0  35771-3 0  9993",
        "tle_line2": "2 34765  86.3383  28.3053 0016653 176.0530 247.6854 14.40490027877630"
      },
      "geometry": {
        "type": "Point",
        "coordinates": [
          16.77652983737693,
          -70.32634242369873
        ]
      }
    }
  ]
}